line1,line2,validFromUtcTime
1 00000U 00000E   26001.00000000  .00000000  00000-0  27772-4 0    01,2 00000  88.9642  15.3306 0009800 270.4052 172.2353 13.55231104    02,2026-01-01T00:00:00Z
1 00000U 00000E   26002.00000000  .00000000  00000-0  27772-4 0    02,2 00000  88.9642  15.2253 0009800 267.4949  11.0657 13.55231142    02,2026-01-02T00:00:00Z
